0 FENGYUN 1C DEB
1 31295U 99025BPD 19289.66533213 -.00000191 +00000-0 -10945-3 0  9998
2 31295 098.3269 282.4062 0079362 060.8443 300.0634 13.96057407641161
0 FENGYUN 1C DEB
1 31295U 99025BPD 19290.45370104 -.00000183  00000-0 -10328-3 0  9991
2 31295  98.3269 283.1195 0079340  58.6747 302.2152 13.96057220642415
0 FENGYUN 1C DEB
1 31296U 99025BPE 19290.33775981  .00001130  00000-0  51904-3 0  9997
2 31296  99.0766  59.1899 0037552 285.0937 102.0908 14.22988905651940
0 FENGYUN 1C DEB
1 31298U 99025BPG 19290.20272039  .00008234  00000-0  58878-3 0  9990
2 31298  98.9848  25.1443 0031660 163.9542 196.2690 15.04387653671241
0 FENGYUN 1C DEB
1 31298U 99025BPG 19289.53759188 +.00008367 +00000-0 +59834-3 0  9999
2 31298 098.9848 024.3720 0031647 165.9860 194.2247 15.04376865671160
0 FENGYUN 1C DEB
1 31299U 99025BPH 19290.02676296  .00003462  00000-0  13325-3 0  9990
2 31299  96.9738   2.2123 0200112  35.9711 325.4799 15.10327848674139
0 FENGYUN 1C DEB
1 31300U 99025BPJ 19289.57648326 +.00000659 +00000-0 +43229-3 0  9995
2 31300 099.5293 202.4141 0068601 125.5657 358.3260 14.04760577645173
0 FENGYUN 1C DEB
1 31303U 99025BPM 19289.91062422 -.00000069 +00000-0 -13676-4 0  9994
2 31303 098.9367 319.1532 0011918 038.2439 321.9575 14.10067608646198
0 ASTRA 1L
1 31306U 07016A   19289.84530613 +.00000124 +00000-0 +00000-0 0  9993
2 31306 000.0600 298.9683 0003994 311.5217 098.1088 01.00272738020625
0 ASTRA 1L
1 31306U 07016A   19290.77845525  .00000124  00000-0  00000+0 0  9997
2 31306   0.0580 299.6839 0004050 311.9914  73.7801  1.00273029 45628
0 GALAXY 17
1 31307U 07016B   19290.61296868 -.00000171  00000-0  00000+0 0  9994
2 31307   0.0491  78.8294 0003487 126.6103 310.0785  1.00270325 45664
0 GALAXY 17
1 31307U 07016B   19289.82332269 -.00000170 +00000-0 +00000-0 0  9991
2 31307 000.0481 078.0155 0003491 125.3486 027.1070 01.00270531045534
0 ARIANE 5 R/B
1 31308U 07016C   19288.50788703 +.00001809 +00000-0 +46955-3 0  9995
2 31308 005.4078 163.0569 7077816 222.3943 053.6489 02.54153424109737
0 FENGYUN 1C DEB
1 31311U 99025BPP 19289.10800032 +.00000640 +00000-0 +35582-3 0  9993
2 31311 099.0039 323.1244 0023668 036.6418 028.2622 14.14630424643153
0 FENGYUN 1C DEB
1 31311U 99025BPP 19290.54289163  .00000639  00000-0  35507-3 0  9994
2 31311  99.0038 324.5712 0023563  32.4943 135.7807 14.14632329644390
0 FENGYUN 1C DEB
1 31312U 99025BPQ 19290.58715031 -.00000085  00000-0 -28598-4 0  9997
2 31312  98.9040 324.3604 0065034 352.3272 159.5135 13.98261621639282
0 FENGYUN 1C DEB
1 31312U 99025BPQ 19289.06002191 -.00000065 +00000-0 -15301-4 0  9990
2 31312 098.9043 322.8782 0065144 356.6043 032.2848 13.98261707636886
0 FENGYUN 1C DEB
1 31313U 99025BPR 19290.29041951  .00000089  00000-0  63797-4 0  9991
2 31313  99.1650  92.3883 0047971 102.7975 257.8566 14.19409260651800
0 FENGYUN 1C DEB
1 31317U 99025BPV 19289.65676179 +.00004315 +00000-0 +11931-2 0  9996
2 31317 099.3693 244.4883 0083651 054.7750 306.1232 14.45240611647394
0 FENGYUN 1C DEB
1 31317U 99025BPV 19290.34907437  .00004330  00000-0  11970-2 0  9998
2 31317  99.3695 245.2518 0083672  52.7742 308.1044 14.45246651648442
0 FENGYUN 1C DEB
1 31319U 99025BPX 19289.94779230 +.00000014 +00000-0 +50817-4 0  9992
2 31319 098.7654 334.9117 0170532 330.6005 151.0656 13.74930992627782
0 FENGYUN 1C DEB
1 31320U 99025BPY 19289.10644753 +.00001605 +00000-0 +10023-2 0  9993
2 31320 098.3267 247.3531 0133022 039.7388 321.3433 14.01725358287169
0 FENGYUN 1C DEB
1 31321U 99025BPZ 19289.46043004 +.00000047 +00000-0 +48913-4 0  9995
2 31321 098.8503 015.8322 0031376 087.3799 273.0964 14.12488436256217
0 FENGYUN 1C DEB
1 31322U 99025BQA 19289.01525760 +.00000003 +00000-0 +38273-4 0  9991
2 31322 098.5913 199.3164 0240534 265.6755 150.5300 13.71697153314235
0 FENGYUN 1C DEB
1 31325U 99025BQD 19288.97641207 +.00000803 +00000-0 +53082-3 0  9995
2 31325 099.0887 353.5105 0082176 026.5239 334.0097 14.02904523281388
0 FENGYUN 1C DEB
1 31327U 99025BQF 19290.02421227  .00000504  00000-0  81492-4 0  9999
2 31327  98.9646   6.0171 0176076 214.8425 144.1148 14.67063143669265
0 FENGYUN 1C DEB
1 31328U 99025BQG 19290.29335184 -.00000006  00000-0  13837-4 0  9991
2 31328  98.4136 316.4610 0106007   1.9883 358.1700 14.27779983655078
0 FENGYUN 1C DEB
1 31330U 99025BQJ 19289.84186300 +.00001029 +00000-0 +47280-3 0  9990
2 31330 098.9597 333.3448 0031640 306.0484 110.8109 14.23269021648071
0 FENGYUN 1C DEB
1 31331U 99025BQK 19290.29854241  .00000345  00000-0  26329-3 0  9999
2 31331  99.1408 319.4594 0051252 291.5903  67.9804 13.99763990639360
0 FENGYUN 1C DEB
1 31334U 99025BQN 19289.31031746 +.00000778 +00000-0 +44640-3 0  9996
2 31334 099.1189 334.3712 0074123 235.5408 123.8743 14.11090029640623
0 FENGYUN 1C DEB
1 31334U 99025BQN 19290.37391670  .00000769  00000-0  44177-3 0  9994
2 31334  99.1187 335.4505 0074259 232.5861 126.8535 14.11091808640777
0 FENGYUN 1C DEB
1 31335U 99025BQP 19290.50730772  .00015072  00000-0  75321-3 0  9998
2 31335  98.7928 299.2604 0029540   2.3134 357.8226 15.17204432670572
0 FENGYUN 1C DEB
1 31336U 99025BQQ 19290.57050095  .00000106  00000-0  51882-4 0  9998
2 31336  98.7541 317.1809 0098489 301.8207 210.5774 14.34141787656003
0 FENGYUN 1C DEB
1 31338U 99025BQS 19289.44238594 +.00000924 +00000-0 +61846-3 0  9994
2 31338 098.8241 159.3468 0094696 322.4926 036.9658 14.01250405321375
0 FENGYUN 1C DEB
1 31341U 99025BQV 19289.30358653 +.00000497 +00000-0 +19668-3 0  9992
2 31341 099.5393 047.4394 0072539 011.4269 041.6630 14.32572516652854
0 FENGYUN 1C DEB
1 31341U 99025BQV 19290.15501365  .00000510  00000-0  20122-3 0  9990
2 31341  99.5393  48.3757 0072504   8.9636 112.7199 14.32573489653433
0 FENGYUN 1C DEB
1 31346U 99025BRA 19289.41309123 +.00000316 +00000-0 +44171-4 0  9995
2 31346 098.8558 344.2390 0202660 316.9661 106.8639 14.73429030661666
0 FENGYUN 1C DEB
1 31348U 99025BRC 19290.32423788  .00000433  00000-0  21896-3 0  9991
2 31348  99.2288 118.9447 0039390  33.3104  91.5431 14.21298033643651
0 FENGYUN 1C DEB
1 31355U 99025BRK 19290.23178569  .00000721  00000-0  16755-3 0  9991
2 31355  98.8417 205.0888 0098804  81.5732  72.2811 14.55378876661741
0 FENGYUN 1C DEB
1 31357U 99025BRM 19290.03279181 -.00000039  00000-0  31323-5 0  9996
2 31357  98.9041 318.1130 0048735 263.2387 126.6074 14.18230774649054
0 FENGYUN 1C DEB
1 31357U 99025BRM 19289.04989853 -.00000026 +00000-0 +93511-5 0  9992
2 31357 098.9041 317.1268 0048700 266.0932 148.2693 14.18230752648146
0 FENGYUN 1C DEB
1 31358U 99025BRN 19289.29964969 +.00000972 +00000-0 +33088-3 0  9991
2 31358 098.9314 059.1274 0157296 015.2506 345.3340 14.32246048650325
0 FENGYUN 1C DEB
1 31358U 99025BRN 19290.34753062  .00000997  00000-0  33894-3 0  9991
2 31358  98.9315  60.2067 0157247  12.1604 348.3305 14.32248221650981
0 FENGYUN 1C DEB
1 31361U 99025BRR 19289.94200623  .00000025  00000-0  33083-4 0  9992
2 31361  98.5801 330.5301 0047069  74.1968 286.4389 14.16481760648032
0 FENGYUN 1C DEB
1 31362U 99025BRS 19289.32060391 +.00000046 +00000-0 +45492-4 0  9991
2 31362 098.7157 314.4961 0019774 069.7119 290.6178 14.15795867647354
0 FENGYUN 1C DEB
1 31364U 99025BRU 19289.11528189 +.00000479 +00000-0 +35907-3 0  9993
2 31364 099.2942 341.6555 0117745 205.7032 184.6636 13.96364359633653
0 FENGYUN 1C DEB
1 31364U 99025BRU 19290.64433052  .00000431  00000-0  32597-3 0  9997
2 31364  99.2939 343.1993 0117909 201.6284 310.9756 13.96365914634801
0 FENGYUN 1C DEB
1 31365U 99025BRV 19289.39255882 +.00000686 +00000-0 +32567-3 0  9990
2 31365 098.8180 342.1434 0052617 295.5969 127.3584 14.22136668645342
0 FENGYUN 1C DEB
1 31365U 99025BRV 19290.08959425  .00000695  00000-0  32971-3 0  9991
2 31365  98.8179 342.8403 0052645 293.5326  96.0225 14.22137764646094
0 FENGYUN 1C DEB
1 31369U 99025BRZ 19289.89045317 +.00000051 +00000-0 +46078-4 0  9998
2 31369 098.6078 318.3238 0056084 300.4977 183.8104 14.16928520324634
0 FENGYUN 1C DEB
1 31370U 99025BSA 19289.32621648 -.00000034 +00000-0 +54322-5 0  9999
2 31370 098.8717 317.7581 0035946 152.1725 208.1377 14.06890405646447
0 FENGYUN 1C DEB
1 31370U 99025BSA 19290.32187410  .00000019  00000-0  37348-4 0  9995
2 31370  98.8715 318.7346 0035977 149.4693 210.8580 14.06890527646690
0 FENGYUN 1C DEB
1 31371U 99025BSB 19290.01062133 -.00000040  00000-0  26822-5 0  9997
2 31371  98.9943 353.0857 0068492  15.2158 345.1046 13.99668899643038
0 FENGYUN 1C DEB
1 31372U 99025BSC 19290.55519414  .00000354  00000-0  22205-3 0  9992
2 31372  99.3817 141.5494 0041559 264.4606  95.1822 14.11040549640607
0 FENGYUN 1C DEB
1 31374U 99025BSE 19288.99943303 +.00001492 +00000-0 +77030-3 0  9997
2 31374 099.6135 213.3689 0205555 098.8416 263.6084 14.06361837642665
0 FENGYUN 1C DEB
1 31381U 99025BSM 19289.04390620 +.00000174 +00000-0 +68112-4 0  9998
2 31381 098.6109 012.9337 0219736 190.4755 169.1811 14.29246279652168
0 FENGYUN 1C DEB
1 31383U 99025BSP 19289.02652248 +.00000093 +00000-0 +88589-4 0  9995
2 31383 099.2699 304.9745 0118244 038.6380 349.6182 13.99973858638488
0 FENGYUN 1C DEB
1 31384U 99025BSQ 19290.48709781  .00000430  00000-0  22612-3 0  9992
2 31384  98.4389 113.0298 0502517 347.0874  37.0443 13.68636085623254
0 FENGYUN 1C DEB
1 31386U 99025BSS 19289.07432730 +.00000207 +00000-0 +21433-3 0  9996
2 31386 098.4566 150.6878 0220198 265.3866 092.2107 13.75325697628582
0 FENGYUN 1C DEB
1 31386U 99025BSS 19290.09282495  .00000200  00000-0  20847-3 0  9992
2 31386  98.4566 151.5927 0220110 262.6360  94.9732 13.75326084629945
0 FENGYUN 1C DEB
1 31388U 99025BSU 19290.57317102 -.00000145  00000-0 -61794-4 0  9998
2 31388  98.8135 314.4663 0048484  46.3897 105.3864 14.06206876649658
